IRIDIUM 119             
1 42959U 17061E   26001.31017003  .00000001  00000+0 -65973-5 0  9994
2 42959  86.3967  95.0365 0001885 104.0535 256.0870 14.34217221430897
IRIDIUM 107             
1 42960U 17061F   26001.25943018  .00000043  00000+0  81657-5 0  9995
2 42960  86.3964  95.0782 0002484 104.0373 256.1099 14.34217774430892
IRIDIUM 132             
1 42961U 17061G   26001.19600312  .00000085  00000+0  23147-4 0  9991
2 42961  86.3969  95.0854 0002231  99.6523 260.4925 14.34218287430889
IRIDIUM 136             
1 42962U 17061H   26001.29748496  .00000018  00000+0 -81020-6 0  9992
2 42962  86.3969  95.0488 0002123 100.9544 259.1891 14.34217663430910
IRIDIUM 139             
1 42963U 17061J   26001.30382155  .00000113  00000+0  33146-4 0  9990
2 42963  86.3969  95.1054 0002244  99.9184 260.2265 14.34220761430924
IRIDIUM 125             
1 42964U 17061K   26001.29114161  .00000217  00000+0  70558-4 0  9992
2 42964  86.3976  95.1698 0002303 111.9995 248.1446 14.34218456430933
IRIDIUM 135             
1 43070U 17083A   26001.12573113  .00000059  00000+0  13935-4 0  9993
2 43070  86.3952  31.8366 0002142  92.0846 268.0595 14.34217860420203
IRIDIUM 138             
1 43071U 17083B   26001.15110081  .00000017  00000+0 -90371-6 0  9994
2 43071  86.3961  31.4955 0001818 102.0822 258.0578 14.34217530420191
